NORAD_CAT_ID,OBJECT_NAME,OBJECT_TYPE,EPOCH,MEAN_MOTION,ECCENTRICITY,INCLINATION,RA_OF_ASC_NODE,ARG_OF_PERICENTER,MEAN_ANOMALY,BSTAR,MEAN_MOTION_DOT,MEAN_MOTION_DDOT,TLE_LINE0,TLE_LINE1,TLE_LINE2,SEMIMAJOR_AXIS,PERIOD,APOGEE,PERIGEE,DECAYED
54160.0,STARLINK-5233,PAYLOAD,2023-03-10 00:00:00,15.31577783,0.0001177,53.2114,208.6251,74.8707,352.7375,-0.039673,-0.01119974,0.0,0 STARLINK-5233,1 54160U 22141D   23069.00001157 -.01119974  00000-0 -39673-1 0  9993,2 54160  53.2114 208.6251 0001177  74.8707 352.7375 15.31577783  1300,6849.241,94.021,471.912,470.3,0.0
54160.0,STARLINK-5233,PAYLOAD,2023-03-10 14:00:01,15.30219663,0.0001264,53.2118,205.9162,79.2632,324.9853,-0.039697,-0.01077806,0.0,0 STARLINK-5233,1 54160U 22141D   23069.58334491 -.01077806  00000-0 -39697-1 0  9999,2 54160  53.2118 205.9162 0001264  79.2632 324.9853 15.30219663 21019,6853.293,94.104,476.025,474.292,0.0
54160.0,STARLINK-5233,PAYLOAD,2023-03-10 22:00:00,15.29474659,0.0001334,53.2117,204.371,72.7559,8.302,-0.04115,-0.01090531,0.0,0 STARLINK-5233,1 54160U 22141D   23069.91667824 -.01090531  00000-0 -41150-1 0  9992,2 54160  53.2117 204.3710 0001334  72.7559   8.3020 15.29474659  1309,6855.519,94.15,478.298,476.469,0.0
54160.0,STARLINK-5233,PAYLOAD,2023-03-11 14:00:01,15.27934416,0.0001405,53.212,201.285,86.1787,65.8531,-0.042187,-0.01068105,0.0,0 STARLINK-5233,1 54160U 22141D   23070.58335648 -.01068105  00000-0 -42187-1 0  9996,2 54160  53.2120 201.2850 0001405  86.1787  65.8531 15.27934416 21166,6860.125,94.245,482.954,481.026,0.0
54160.0,STARLINK-5233,PAYLOAD,2023-03-11 22:00:00,15.27203298,0.000141,53.2117,199.7452,82.5652,103.4709,-0.044702,-0.01103421,0.0,0 STARLINK-5233,1 54160U 22141D   23070.91667824 -.01103421  00000-0 -44702-1 0  9993,2 54160  53.2117 199.7452 0001410  82.5652 103.4709 15.27203298  1305,6862.314,94.29,485.147,483.212,0.0
54160.0,STARLINK-5233,PAYLOAD,2023-03-12 14:00:01,15.25652402,0.0001398,53.2118,196.67,86.2026,165.2689,-0.044912,-0.0106122,0.0,0 STARLINK-5233,1 54160U 22141D   23071.58334491 -.01061220  00000-0 -44912-1 0  9991,2 54160  53.2118 196.6700 0001398  86.2026 165.2689 15.25652402 21318,6866.964,94.386,489.789,487.869,0.0
54160.0,STARLINK-5233,PAYLOAD,2023-03-13 00:00:00,15.24725802,0.0001195,53.2116,194.7512,77.8767,302.6236,-0.047911,-0.01097421,0.0,0 STARLINK-5233,1 54160U 22141D   23072.00001157 -.01097421  00000-0 -47911-1 0  9993,2 54160  53.2116 194.7512 0001195  77.8767 302.6236 15.24725802  1305,6869.746,94.443,492.432,490.79,0.0
54160.0,STARLINK-5233,PAYLOAD,2023-03-13 14:00:01,15.2337502,0.0001273,53.2114,192.0709,80.2657,262.4934,-0.048094,-0.01061104,0.0,0 STARLINK-5233,1 54160U 22141D   23072.58334491 -.01061104  00000-0 -48094-1 0  9998,2 54160  53.2114 192.0709 0001273  80.2657 262.4934 15.23375020 21475,6873.806,94.527,496.546,494.796,0.0
54160.0,STARLINK-5233,PAYLOAD,2023-03-13 22:00:00,15.22649256,0.0001228,53.2112,190.5412,75.1237,296.2286,-0.051732,-0.01126703,0.0,0 STARLINK-5233,1 54160U 22141D   23072.91667824 -.01126703  00000-0 -51732-1 0  9994,2 54160  53.2112 190.5412 0001228  75.1237 296.2286 15.22649256  1303,6875.99,94.572,498.7,497.011,0.0
54160.0,STARLINK-5233,PAYLOAD,2023-03-14 14:00:01,15.21101564,0.0001177,53.2112,187.4878,78.9514,346.8782,-0.051588,-0.01063634,0.0,0 STARLINK-5233,1 54160U 22141D   23073.58334491 -.01063634  00000-0 -51588-1 0  9991,2 54160  53.2112 187.4878 0001177  78.9514 346.8782 15.21101564 21620,6880.654,94.668,503.329,501.709,0.0
54160.0,STARLINK-5233,PAYLOAD,2023-03-14 22:00:00,15.20367555,0.0001319,53.211,185.9632,76.4672,15.2236,-0.055074,-0.01121699,0.0,0 STARLINK-5233,1 54160U 22141D   23073.91667824 -.01121699  00000-0 -55074-1 0  9997,2 54160  53.2110 185.9632 0001319  76.4672  15.2236 15.20367555  1302,6882.868,94.714,505.641,503.825,0.0
54160.0,STARLINK-5233,PAYLOAD,2023-03-15 14:00:01,15.1881619,0.0001488,53.211,182.9205,77.8875,62.8072,-0.054733,-0.01056106,0.0,0 STARLINK-5233,1 54160U 22141D   23074.58334491 -.01056106  00000-0 -54733-1 0  9993,2 54160  53.2110 182.9205 0001488  77.8875  62.8072 15.18816190 21772,6887.554,94.811,510.444,508.394,0.0
54160.0,STARLINK-5233,PAYLOAD,2023-03-15 22:00:00,15.18088779,0.0001462,53.211,181.4011,77.2292,86.5848,-0.058863,-0.01121801,0.0,0 STARLINK-5233,1 54160U 22141D   23074.91667824 -.01121801  00000-0 -58863-1 0  9992,2 54160  53.2110 181.4011 0001462  77.2292  86.5848 15.18088779  1305,6889.754,94.856,512.626,510.612,0.0
54160.0,STARLINK-5233,PAYLOAD,2023-03-16 14:00:01,15.16534577,0.0001516,53.2113,178.3692,78.105,129.2372,-0.058055,-0.01062453,0.0,0 STARLINK-5233,1 54160U 22141D   23075.58334491 -.01062453  00000-0 -58055-1 0  9997,2 54160  53.2113 178.3692 0001516  78.1050 129.2372 15.16534577 21927,6894.461,94.953,517.371,515.28,0.0
54160.0,STARLINK-5233,PAYLOAD,2023-03-16 22:00:00,15.15809858,0.0001483,53.2115,176.855,82.5648,145.1576,-0.062958,-0.01123509,0.0,0 STARLINK-5233,1 54160U 22141D   23075.91667824 -.01123509  00000-0 -62958-1 0  9990,2 54160  53.2115 176.8550 0001483  82.5648 145.1576 15.15809858  1309,6896.658,94.999,519.546,517.5,0.0
54160.0,STARLINK-5233,PAYLOAD,2023-03-17 06:00:00,15.15032503,0.0001487,53.2118,175.342,96.3508,150.8513,-0.0616,-0.0107866,0.0,0 STARLINK-5233,1 54160U 22141D   23076.25001157 -.01078660  00000-0 -61600-1 0  9999,2 54160  53.2118 175.3420 0001487  96.3508 150.8513 15.15032503 22025,6899.017,95.047,521.908,519.856,0.0
54160.0,STARLINK-5233,PAYLOAD,2023-03-17 14:00:01,15.1425325,0.0001454,53.2119,173.8338,87.7257,178.0501,-0.061582,-0.01056429,0.0,0 STARLINK-5233,1 54160U 22141D   23076.58334491 -.01056429  00000-0 -61582-1 0  9993,2 54160  53.2119 173.8338 0001454  87.7257 178.0501 15.14253250  1306,6901.384,95.096,524.252,522.245,0.0
54160.0,STARLINK-5233,PAYLOAD,2023-03-17 22:00:00,15.13527485,0.0001331,53.2122,172.3249,88.4475,194.9732,-0.066811,-0.01117802,0.0,0 STARLINK-5233,1 54160U 22141D   23076.91667824 -.01117802  00000-0 -66811-1 0  9992,2 54160  53.2122 172.3249 0001331  88.4475 194.9732 15.13527485  1305,6903.59,95.142,526.373,524.536,0.0
54160.0,STARLINK-5233,PAYLOAD,2023-03-18 06:00:00,15.12755813,0.0001333,53.2126,170.8175,96.0542,204.1046,-0.065916,-0.01081929,0.0,0 STARLINK-5233,1 54160U 22141D   23077.25001157 -.01081929  00000-0 -65916-1 0  9996,2 54160  53.2126 170.8175 0001333  96.0542 204.1046 15.12755813 22180,6905.937,95.191,528.723,526.882,0.0
54160.0,STARLINK-5233,PAYLOAD,2023-03-18 22:00:00,15.11244807,0.0001282,53.2129,167.811,84.8097,246.0938,-0.070782,-0.01111256,0.0,0 STARLINK-5233,1 54160U 22141D   23077.91667824 -.01111256  00000-0 -70782-1 0  9992,2 54160  53.2129 167.8110 0001282  84.8097 246.0938 15.11244807  1302,6910.54,95.286,533.291,531.519,0.0
54160.0,STARLINK-5233,PAYLOAD,2023-03-19 06:00:02,15.1047946,0.0001285,53.2133,166.3092,91.224,253.74,-0.07049,-0.01085397,0.0,0 STARLINK-5233,1 54160U 22141D   23078.25002315 -.01085397  00000-0 -70490-1 0  9990,2 54160  53.2133 166.3092 0001285  91.2240 253.7400 15.10479460 22334,6912.874,95.334,535.627,533.85,0.0
54160.0,STARLINK-5233,PAYLOAD,2023-03-19 14:00:01,15.09647068,0.0001445,53.2137,164.8116,78.0672,279.9422,-0.06133,-0.00922818,0.0,0 STARLINK-5233,1 54160U 22141D   23078.58334491 -.00922818  00000-0 -61330-1 0  9999,2 54160  53.2137 164.8116 0001445  78.0672 279.9422 15.09647068  1305,6915.415,95.387,538.279,536.28,0.0
54160.0,STARLINK-5233,PAYLOAD,2023-03-19 22:00:00,15.08906153,0.0001604,53.2148,163.3129,83.3048,286.8567,-0.0077458,-0.00121707,0.0,0 STARLINK-5233,1 54160U 22141D   23078.91667824 -.00121707  00000-0 -77458-2 0  9992,2 54160  53.2148 163.3129 0001604  83.3048 286.8567 15.08906153 22434,6917.678,95.433,540.653,538.434,0.0
54160.0,STARLINK-5233,PAYLOAD,2023-03-20 06:00:00,15.08836905,0.0001546,53.2162,161.816,89.0279,292.7529,0.00031487,4.726e-05,0.0,0 STARLINK-5233,1 54160U 22141D   23079.25001157  .00004726  00000-0  31487-3 0  9993,2 54160  53.2162 161.8160 0001546  89.0279 292.7529 15.08836905 22488,6917.89,95.438,540.824,538.685,0.0
54160.0,STARLINK-5233,PAYLOAD,2023-03-20 14:00:01,15.08810512,0.0001506,53.2163,160.3213,83.4388,309.9412,-0.00022362,-3.842e-05,0.0,0 STARLINK-5233,1 54160U 22141D   23079.58334491 -.00003842  00000-0 -22362-3 0  9991,2 54160  53.2163 160.3213 0001506  83.4388 309.9412 15.08810512  1303,6917.971,95.439,540.877,538.794,0.0
54160.0,STARLINK-5233,PAYLOAD,2023-03-20 22:00:01,15.08831459,0.000143,53.2163,158.8237,89.5613,315.4478,0.00040389,6.144e-05,0.0,0 STARLINK-5233,1 54160U 22141D   23079.91668981  .00006144  00000-0  40389-3 0  9997,2 54160  53.2163 158.8237 0001430  89.5613 315.4478 15.08831459  1302,6917.906,95.438,540.761,538.782,0.0
54160.0,STARLINK-5233,PAYLOAD,2023-03-21 14:00:01,15.08853264,0.0001226,53.2161,155.8323,89.2552,338.9682,-0.0042984,-0.00068074,0.0,0 STARLINK-5233,1 54160U 22141D   23080.58335648 -.00068074  00000-0 -42984-2 0  9997,2 54160  53.2161 155.8323 0001226  89.2552 338.9682 15.08853264 22684,6917.84,95.437,540.553,538.857,0.0
54160.0,STARLINK-5233,PAYLOAD,2023-03-21 22:00:00,15.08816244,0.0001059,53.2158,154.3346,99.1641,340.5817,0.00091628,0.00014315,0.0,0 STARLINK-5233,1 54160U 22141D   23080.91667824  .00014315  00000-0  91628-3 0  9995,2 54160  53.2158 154.3346 0001059  99.1641 340.5817 15.08816244 22734,6917.953,95.439,540.551,539.085,0.0
54160.0,STARLINK-5233,PAYLOAD,2023-03-22 00:00:00,15.08800966,0.0001027,53.2157,153.9601,102.3146,70.3285,0.0036584,0.00058355,0.0,0 STARLINK-5233,1 54160U 22141D   23081.00001157  .00058355  00000-0  36584-2 0  9998,2 54160  53.2157 153.9601 0001027 102.3146  70.3285 15.08800966  1305,6918.0,95.44,540.575,539.154,0.0
54160.0,STARLINK-5233,PAYLOAD,2023-03-22 22:00:00,15.08830339,0.0001112,53.2158,149.8454,111.1252,3.3819,0.0014061,0.00022155,0.0,0 STARLINK-5233,1 54160U 22141D   23081.91667824  .00022155  00000-0  14061-2 0  9992,2 54160  53.2158 149.8454 0001112 111.1252   3.3819 15.08830339  1303,6917.91,95.438,540.544,539.006,0.0
